assistance_torques.sto
version=1
nRows=1350
nColumns=3
inDegrees=no
endheader
time	exo_hip_assist_r	exo_hip_assist_l
0.45	-4.265972628356096	7.429409058771414
0.451	-4.282796680420448	7.425399978425165
0.452	-4.316261254022756	7.41706079698341
0.453	-4.34935330059971	7.4080913469061995
0.454	-4.382062098436665	7.398514963690036
0.455	-4.414377346278435	7.388354352142344
0.456	-4.446289583788531	7.377632217070557
0.457	-4.477790191549463	7.366370842822695
0.458	-4.508870129684128	7.354592093287342
0.459	-4.539520568545193	7.342317201664014
0.46	-4.569734150093249	7.329567401152275
0.461	-4.599503306059045	7.316363714721958
0.462	-4.62882025794394	7.302726324424104
0.463	-4.6576780681678365	7.2886754123097175
0.464	-4.686070429839564	7.274230950200126
0.465	-4.713991036068484	7.259412489457311
0.466	-4.741433579963428	7.244239160983775
0.467	-4.768391964863222	7.228730305911786
0.468	-4.794860724795847	7.212904214225322
0.469	-4.820834604018752	7.196779175907631
0.47	-4.846308136559459	7.180373691172308
0.471	-4.871276907594799	7.163705419314309
0.472	-4.895736292071068	7.146791178709281
0.473	-4.919681875164712	7.12964799796287
0.474	-4.943110082971029	7.112292695450878
0.475	-4.966016921125621	7.094740617941276
0.476	-4.988399025953326	7.077007532661493
0.477	-5.010254295156984	7.059108365920017
0.478	-5.031580205980432	7.0410572031067185
0.479	-5.052374235667201	7.022868129611332
0.48	-5.072635122839134	7.004554179675165
0.481	-5.092361816347843	6.986127756850429
0.482	-5.111554105963404	6.96760084422991
0.483	-5.1302113609968165	6.948984583987621
0.484	-5.148334422366927	6.930289067149056
0.485	-5.165924341222279	6.911524805199168
0.486	-5.182982168711259	6.89270041755556
0.487	-5.199510848049493	6.873824313406259
0.488	-5.215512271304522	6.854904691709365
0.489	-5.230989381692127	6.835948069585474
0.49	-5.245946383806089	6.816960964155416
0.491	-5.2603870617811115	6.797949472080398
0.492	-5.274315620211054	6.778919059332478
0.493	-5.287737104608853	6.759874140735361
0.494	-5.300656560487141	6.740819131112751
0.495	-5.313079243588241	6.721758235058585
0.496	-5.3250114608034025	6.702694395788679
0.497	-5.336458888334258	6.683630766748467
0.498	-5.34742741261244	6.664570711613073
0.499	-5.35792418144774	6.645515701990464
0.5	-5.367955711960564	6.626467629947913
0.501	-5.377528731501544	6.6074288080120445
0.502	-5.386650387880396	6.588400077101706
0.503	-5.395327618676948	6.569382278135709
0.504	-5.403567992160492	6.5503758315734375
0.505	-5.4113790766002055	6.531380947644547
0.506	-5.418768440265187	6.512397626349
0.507	-5.425743861654191	6.493425026768139
0.508	-5.432313329495705	6.474462097753421
0.509	-5.438484832518519	6.4555073676968835
0.51	-5.444266779910429	6.436559154760942
0.511	-5.449668001318655	6.4176149361893575
0.512	-5.454697116160953	6.398672189225663
0.513	-5.459363584773736	6.379727760424348
0.514	-5.463676236804299	6.3607776554211695
0.515	-5.4676451632782115	6.341817879851885
0.516	-5.471280875680275	6.322844018892828
0.517	-5.474593044576672	6.303850606571788
0.518	-5.4775926019118195	6.2848323871464045
0.519	-5.48029068985956	6.265783474185006
0.52	-5.482698030134578	6.2466973505670715
0.521	-5.484826185370294	6.227567709401583
0.522	-5.48668692842982	6.208386982419403
0.523	-5.4882916117168055	6.189148442270202
0.524	-5.489652008094326	6.169844310455112
0.525	-5.490779890425645	6.150466808475377
0.526	-5.491687031573723	6.131008578291438
0.527	-5.492385204401709	6.111461000485768
0.528	-5.492885761313333	6.09181629655946
0.529	-5.493200054712317	6.072066267554373
0.53	-5.4933398574616605	6.052202714512174
0.531	-5.493316101505705	6.0322174384745715
0.532	-5.493139508559173	6.0121022404835385
0.533	-5.492821220795945	5.991849342040168
0.534	-5.492371749701015	5.971450333956435
0.535	-5.491801186299912	5.950897017274236
0.536	-5.491119411388397	5.9301822441837055
0.537	-5.490336515992002	5.909298025956203
0.538	-5.489461960447137	5.888236163633782
0.539	-5.4885052050902186	5.866989299176956
0.54	-5.487475920487427	5.845549654086781
0.541	-5.486382515826673	5.823909239634694
0.542	-5.485234451444331	5.802060487551595
0.543	-5.484041187676891	5.779995409108921
0.544	-5.4828113439419575	5.757705384889186
0.545	-5.481554170346248	5.735182426163672
0.546	-5.480278706766793	5.712418123744585
0.547	-5.478994623769618	5.689403437754974
0.548	-5.477710751002214	5.666129538547123
0.549	-5.476435707882182	5.642587596474002
0.55	-5.475179375205207	5.618768151199276
0.551	-5.4739503723890826	5.594662373075458
0.552	-5.472757108621643	5.570261011995826
0.553	-5.47160799309076	5.545555028083431
0.554	-5.470511224754842	5.520535801920554
0.555	-5.46947437188295	5.495194083400399
0.556	-5.468504582284761	5.469522304254095
0.557	-5.467608793540371	5.4435118450639255
0.558	-5.466792681851606	5.417154927330866
0.559	-5.466062343879792	5.390444403245281
0.56	-5.465423035367366	5.363372494308377
0.561	-5.464879171137882	5.335932893629136
0.562	-5.464435166015467	5.308118873857458
0.563	-5.4640945939042105	5.279924128102171
0.564	-5.463861028709048	5.2513431903906485
0.565	-5.463737413646483	5.2223699640625565
0.566	-5.463725851013102	5.192998983145268
0.567	-5.463828653335546	5.163225412355691
0.568	-5.464047712681187	5.133044416410886
0.569	-5.46438408019843	5.10245094979807
0.57	-5.464839017265512	5.07144080792323
0.571	-5.465413364801203	5.040009786192431
0.572	-5.46610691257583	5.008153049322656
0.573	-5.466920081048798	4.975867233638668
0.574	-5.467852659990375	4.94314834477622
0.575	-5.468904018711503	4.90999196791161
0.576	-5.470073106063638	4.876394949599288
0.577	-5.471358870898337	4.842353505705013
0.578	-5.472760262067095	4.807864272553388
0.579	-5.474274756813502	4.772923886469099
0.58	-5.475900252840608	4.737528983777209
0.581	-5.477634437621753	4.701677041721251
0.582	-5.479474367941121	4.6653649068557534
0.583	-5.481416680123546	4.628590266654017
0.584	-5.483457169575094	4.591351018819112
0.585	-5.485591841931446	4.553645481513494
0.586	-5.487816072139278	4.515472183129008
0.587	-5.490124604456114	4.476829862287648
0.588	-5.492511342220686	4.437717678070795
0.589	-5.494970609231187	4.398135210018834
0.59	-5.4974960985966765	4.358082878591151
0.591	-5.500080242047958	4.31756047355813
0.592	-5.502716522464415	4.276568625608925
0.593	-5.505396951117545	4.235108596121541
0.594	-5.508113329049013	4.193181436244597
0.595	-5.510857877760085	4.1507884073562495
0.596	-5.513621977833139	4.1079314015238895
0.597	-5.516396799620744	4.064612731274139
0.598	-5.519173303245942	4.020834078444237
0.599	-5.521942448831723	3.9765985964801875
0.6	-5.524694565811942	3.931909018367924
0.601	-5.5274195631610805	3.8867682873230724
0.602	-5.53010756008331	3.841180607939644
0.603	-5.532748045093741	3.7951493438928035
0.604	-5.53533050670745	3.748679120236025
0.605	-5.5378438027504036	3.701774562022554
0.606	-5.540276370589228	3.6544407147651756
0.607	-5.542617068049911	3.6066836751252143
0.608	-5.544853912039628	3.558508698845072
0.609	-5.546974499006196	3.509922303045306
0.61	-5.54896684585682	3.4609316355357844
0.611	-5.550818128579895	3.4115432134371417
0.612	-5.552515733393516	3.361764184559092
0.613	-5.55404746697521	3.3116029580895074
0.614	-5.555399664394566	3.2610671022976403
0.615	-5.556559711869684	3.210164605911977
0.616	-5.557515205848379	3.158904298579775
0.617	-5.558252481400247	3.107294169029673
0.618	-5.558758924743412	3.055343677598008
0.619	-5.559021922095968	3.0030620743915764
0.62	-5.559028439216613	2.950458189057713
0.621	-5.558765441864059	2.8975423228515256
0.622	-5.558220526486113	2.8443243565690435
0.623	-5.5573808690711735	2.790814381235605
0.624	-5.556233225148251	2.737023539025091
0.625	-5.55476561162454	2.682962972111841
0.626	-5.5529647840290535	2.628643822669659
0.627	-5.550818128579896	2.5740782840210423
0.628	-5.54831345195456	2.5192789699481057
0.629	-5.545437509682059	2.4642582840028107
0.63	-5.542177898210192	2.4090296808857365
0.631	-5.538522213986761	2.353606825527539
0.632	-5.534458053459568	2.2980040135477213
0.633	-5.529972802846715	2.2422355405656362
0.634	-5.525054058596004	2.186316332889866
0.635	-5.5196900478443345	2.1302621577476906
0.636	-5.513868367039503	2.074088572136924
0.637	-5.507576822859005	2.0178115535146923
0.638	-5.5008042731288445	1.961447710027045
0.639	-5.493538944985905	1.9050138600498028
0.64	-5.48576906556709	1.8485272424183246
0.641	-5.477484123387488	1.7920053061976622
0.642	-5.468673396732472	1.7354652902227161
0.643	-5.459326163887445	1.6789254844775394
0.644	-5.449432333826879	1.6224037584865703
0.645	-5.438982446214373	1.5659177715441708
0.646	-5.427967461172877	1.5094864443233973
0.647	-5.4163785490550485	1.453128066807844
0.648	-5.404207090443311	1.3968613494407203
0.649	-5.391445306838786	1.3407047924356201
0.65	-5.378085840202038	1.2846771062355238
0.651	-5.364121752953038	1.2287980524321056
0.652	-5.349546527971119	1.173086551698192
0.653	-5.334353858365352	1.1175621553956887
0.654	-5.318537857704188	1.0622450455758088
0.655	-5.302093480474853	1.007155194059767
0.656	-5.285015891394274	0.952312993128317
0.657	-5.267300465409131	0.8977388350621358
0.658	-5.248943628614518	0.8434539530606727
0.659	-5.229941386646174	0.7894797905532989
0.66	-5.210290796288338	0.7358371602802304
0.661	-5.189989965473708	0.6825477159003787
0.662	-5.169036161216226	0.6296333213021187
0.663	-5.147428542597065	0.5771154199148218
0.664	-5.125166268697471	0.5250156653973996
0.665	-5.102249129287712	0.4733559216384563
0.666	-5.078678175516292	0.4221574218375174
0.667	-5.054453827842636	0.3714418196536474
0.668	-5.029578398793384	0.3212305585159117
0.669	-5.004054621354623	0.27154445116452636
0.67	-4.977885648971841	0.22240473079894035
0.671	-4.951075265779609	0.1738326306186027
0.672	-4.923627676371882	0.12584833267487996
0.673	-4.895548556950502	0.07847243947783628
0.674	-4.866843583717334	0.03172576376776414
0.675	-4.837518853333647	-0.014372353323047682
0.676	-4.807581723838846	-0.059801729743691544
0.677	-4.777039343042683	-0.10454260390249276
0.678	-4.745899909903435	-0.14857542443739313
0.679	-4.714172254068377	-0.19188063998641094
0.68	-4.681864994955131	-0.2344397503364118
0.681	-4.648988223589266	-0.2762338348144163
0.682	-4.615552030996275	-0.3172437625176759
0.683	-4.581566718431342	-0.3574512434626725
0.684	-4.5470434280685375	-0.3968381978952752
0.685	-4.511993722541226	-0.43538654606142957
0.686	-4.4764293747124615	-0.47307883889616015
0.687	-4.440362788134798	-0.5098972068751054
0.688	-4.4038072072787395	-0.5458248316224453
0.689	-4.366775456155731	-0.5808448947623598
0.69	-4.329281620156174	-0.6149407881484921
0.691	-4.29134020512902	-0.6480971650131023
0.692	-4.25296634761243	-0.6802980478989894
0.693	-4.214175184144775	-0.71152851049757
0.694	-4.174983112642509	-0.7417744674191855
0.695	-4.135407582170569	-0.7710224639630268
0.696	-4.0954652008751395	-0.7992594658878238
0.697	-4.055174468969643	-0.8264728594116159
0.698	-4.014554307126903	-0.8526512921308295
0.699	-3.9736236360198443	-0.8777836218714312
0.7	-3.932402847929181	-0.9018597576077761
0.701	-3.8909121249058582	-0.92487065946299
0.702	-3.849171859230746	-0.946807708019355
0.703	-3.807203494332985	-0.9676624940889227
0.704	-3.765028683871411	-0.9874282903214419
0.705	-3.722669291734819	-1.0060990000555865
0.706	-3.6801471818117752	-1.0236685266301078
0.707	-3.637484848679887	-1.0401320347619907
0.708	-3.5947045766873735	-1.055485530086916
0.709	-3.551829070641535	-1.069725438700103
0.71	-3.5088812455794405	-1.0828492378451595
0.711	-3.4658835960788497	-1.0948548252249266
0.712	-3.422859247406563	-1.10574072923163
0.713	-3.379831535059189	-1.1155065294059598
0.714	-3.336823163843951	-1.1241518052883774
0.715	-3.293857259027802	-1.1316776080275008
0.716	-3.2509573663369666	-1.1380854092311805
0.717	-3.2081466110381314	-1.143376890736884
0.718	-3.1654483286279036	-1.1475554162200046
0.719	-3.1228858546027385	-1.1506243493555532
0.72	-3.0804825244592067	-1.1525878947373898
0.721	-3.0382620941532252	-1.15345151833799
0.722	-2.996247688951518	-1.1532206861292948
0.723	-2.95446285458031	-1.1519025459210948
0.724	-2.9129315572252503	-1.1495050864418754
0.725	-2.871677132382832	-1.1460367168795853
0.726	-2.830723336008934	-1.141507528259793
0.727	-2.790093924059513	-1.1359278218376838
0.728	-2.7498124422607164	-1.1293095807060625
0.729	-2.709902226109115	-1.12166562887643
0.73	-2.6703868213309327	-1.1130092108199787
0.731	-2.631289563422587	-1.1033552528452923
0.732	-2.592632946961799	-1.0927193119498038
0.733	-2.5544396767560213	-1.0811179962797162
0.734	-2.5167320371533597	-1.0685683344407724
0.735	-2.4795314715829178	-1.055089036875953
0.736	-2.4428594234739895	-1.0406994447176225
0.737	-2.406736285107215	-1.0254182684089916
0.738	-2.3711820283039997	-1.0092667411493559
0.739	-2.336216414656018	-0.992267357516475
0.74	-2.301858154606289	-0.9744421916287996
0.741	-2.268125538138751	-0.955813317604627
0.742	-2.2350355938588784	-0.9364040709404122
0.743	-2.202605350372109	-0.9162384178218425
0.744	-2.1708509953653357	-0.8953403244343753
0.745	-2.1397872449174495	-0.8737350183418556
0.746	-2.1094294457963816	-0.8514473066488191
0.747	-2.079791052702903	-0.8285024169188043
0.748	-2.0508850998781685	-0.8049268380940438
0.749	-2.022724201104101	-0.7807468488867706
0.75	-1.9953197087845413	-0.7559885177795251
0.751	-1.9686823446340225	-0.7306793848626985
0.752	-1.9428221996780364	-0.7048467799970652
0.753	-1.9177485240233032	-0.6785182432733989
0.754	-1.8934693063983472	-0.6517223659302496
0.755	-1.8699925355317688	-0.6244877392068556
0.756	-1.8473245183145102	-0.5968431645719189
0.757	-1.825470930948358	-0.5688180741829907
0.758	-1.8044372394054828	-0.5404423206573145
0.759	-1.7842272278205107	-0.5117459668417497
0.76	-1.7648442598686056	-0.48275991650200467
0.761	-1.7462906480763905	-0.4535146529443249
0.762	-1.7285678640517925	-0.4240408697044962
0.763	-1.7116767487136217	-0.39437031146699847
0.764	-1.6956166713727614	-0.3645343024572317
0.765	-1.6803865808807077	-0.33456395667013805
0.766	-1.665984585170148	-0.30449122901989045
0.767	-1.6524073205659946	-0.2743480744208149
0.768	-1.6396514233930453	-0.24416581709777585
0.769	-1.6277118481384771	-0.2139759915056369
0.77	-1.616582498141118	-0.18381055255857098
0.771	-1.6062568562802946	-0.15370082448151912
0.772	-1.5967275645165229	-0.12367792126972947
0.773	-1.5879857932025456	-0.09377295691875603
0.774	-1.5800214513128326	-0.06401662496453746
0.775	-1.572824658051546	-0.03443940871316645
0.776	-1.5663834303258424	-0.005071791471041622
0.777	-1.5606853645836456	0.024056584374439704
0.778	-1.5557170061241463	0.052916496895189694
0.779	-1.5514634286387612	0.08147893439296644
0.78	-1.5479097058190214	0.10971509539899157
0.781	-1.5450392295186854	0.13759701936325858
0.782	-1.5428341302133535	0.1650973764252988
0.783	-1.5412763281490856	0.1921890469538776
0.784	-1.5403466924233244	0.21884554200699227
0.785	-1.5400246205255088	0.24504079310210247
0.786	-1.540288669026573	0.2707499931347493
0.787	-1.5411167638081433	0.29594854523016667
0.788	-1.5424857796033427	0.3206120627435111
0.789	-1.54437196045633	0.3447176306377134
0.79	-1.5467504992626848	0.36824254410516766
0.791	-1.5495953275398282	0.3911649392574225
0.792	-1.5528805870348747	0.4134635828947996
0.793	-1.556579368346474	0.4351178725070053
0.794	-1.56066329046531	0.4561082567320578
0.795	-1.5651041826118364	0.4764156046672849
0.796	-1.5698736637767752	0.4960216263290922
0.797	-1.5749420915726144	0.5149084521930417
0.798	-1.5802787724635303	0.5330596843426992
0.799	-1.5858538538322797	0.5504591350913237
0.8	-1.5916362216835378	0.5670918781304081
0.801	-1.59759392110317	0.5829436178402949
0.802	-1.6036954176364275	0.5980004790608658
0.803	-1.6099079154503655	0.6122508991589308
0.804	-1.616198408482308	0.6256835257307636
0.805	-1.6225332599806528	0.6382878472912565
0.806	-1.6288786229639522	0.6500546137337662
0.807	-1.6351995993022168	0.6609760465595758
0.808	-1.6414612908655337	0.6710449979588187
0.809	-1.6476290097537216	0.6802553712702455
0.81	-1.6536668066884026	0.6886023312108416
0.811	-1.6595387323911228	0.6960816731865945
0.812	-1.6652090478132355	0.7026906642114956
0.813	-1.6706422241356729	0.7084265712995363
0.814	-1.6758023120799421	0.7132877126128669
0.815	-1.6806537828272048	0.7172736676922544
0.816	-1.6851613177880855	0.7203842263080823
0.817	-1.6892893881435547	0.7226200191492765
0.818	-1.693003516223085	0.7239820973644548
0.819	-1.6962688038968021	0.7244729837099331
0.82	-1.6990509837239105	0.7240958316313352
0.821	-1.7013159984931925	0.7228533741144403
0.822	-1.7030297909935457	0.7207508669018021
0.823	-1.7041589347030608	0.7177939861955899
0.824	-1.7046693724104443	0.7139884081972079
0.825	-1.7045278878235182	0.7093421216354477
0.826	-1.7037014748796446	0.7038637459279509
0.827	-1.702157127516033	0.6975621107218987
0.828	-1.6998620498998147	0.6904475172726289
0.829	-1.6967838666575839	0.682531528213561
0.83	-1.6928910433345155	0.6738261266374238
0.831	-1.6881518352461293	0.6643441365557181
0.832	-1.682535128397139	0.6540992228990222
0.833	-1.6760112804000329	0.6431058915165337
0.834	-1.6685504386377203	0.6313788584869136
0.835	-1.6601238016414614	0.6189341012673629
0.836	-1.6507036190910953	0.6057878075446995
0.837	-1.640262561125924	0.5919563752353574
0.838	-1.6287745592632927	0.5774578840933147
0.839	-1.6162141757097015	0.5623102036429327
0.84	-1.6025572340499235	0.5465314136383425
0.841	-1.587779978327926	0.5301406449819867
0.842	-1.5718594935067165	0.5131572388063836
0.843	-1.5547749668461175	0.49560116693251843
0.844	-1.5365051651466028	0.4774934523303002
0.845	-1.5170303268165368	0.45885448728071193
0.846	-1.496332161872095	0.43970550498289673
0.847	-1.4743921701000284	0.4200685795554578
0.848	-1.4511939535836735	0.39996557488692314
0.849	-1.4267215348659819	0.37941919578466904
0.85	-1.4009606183275638	0.3584521470562247
0.851	-1.3738973288083394	0.3370867130494275
0.852	-1.3455188422966162	0.31534580880157614
0.853	-1.3158144370777851	0.29325255957943286
0.854	-1.2847738118966996	0.27082967019037396
0.855	-1.2523881371060253	0.2481004761308546
0.856	-1.2186498444365859	0.22508705151924863
0.857	-1.1835524167677458	0.20181189093339233
0.858	-1.147090808586836	0.17829769918050906
0.859	-1.1092616562184248	0.15456612991958665
0.86	-1.0700624369063874	0.13063883680961308
0.861	-1.029491889272566	0.10653726327965378
0.862	-0.9875502235464627	0.08228285275915669
0.863	-0.9442387011063116	0.05789662821787782
0.864	-0.8995602651680055	0.03339856147703187
0.865	-0.8535193305550968	0.008808834587755944
0.866	-0.8061213632397175	-0.01585258062873527
0.867	-0.7573730905723104	-0.04056655326969304
0.868	-0.7072822910517065	-0.0653137422029051
0.869	-0.6558588454737051	-0.09007627790423944
0.87	-0.6031134755528389	-0.11483587038971924
0.871	-0.5490575336929107	-0.13957443990529003
0.872	-0.49370468482430774	-0.16427516807528467
0.873	-0.43706922456645814	-0.1889210262941136
0.874	-0.37916607922794526	-0.21349561664518965
0.875	-0.32001248764408985	-0.23798338213077408
0.876	-0.2596258988797527	-0.26236876575328105
0.877	-0.19802460291879592	-0.2866370514338202
0.878	-0.13522857158247245	-0.31077415378273293
0.879	-0.07125903807034606	-0.33476598741013136
0.88	-0.006137656041404607	-0.3585993078449758
0.881	0.060113290156514516	-0.38226171153515154
0.882	0.12746962410803128	-0.40574163584716266
0.883	0.19590674893834142	-0.4290275181478194
0.884	0.26539964731340776	-0.4521084264924753
0.885	0.3359218302912658	-0.4749742698557913
0.886	0.40744638847056514	-0.4976157981311236
0.887	0.4799459919905311	-0.5200241816710616
0.888	0.5533918393824235	-0.5421908010579639
0.889	0.6277551291776171	-0.5641080880226542
0.89	0.7030060087589068	-0.5857697356742668
0.891	0.7791135743607758	-0.6071692268920902
0.892	0.8560475529066329	-0.6283004650149516
0.893	0.933775779252536	-0.6491592454487624
0.894	1.0122658780250025	-0.6697407329106605
0.895	1.0914854738504736	-0.6900411432659431
0.896	1.1714007197476544	-0.7100575332987555
0.897	1.251977768734982	-0.7297867495637799
0.898	1.333182773831085	-0.7492273204530121
0.899	1.4149806266763196	-0.7683777743586017
0.9	1.49733621891108	-0.7872368499023906
0.901	1.580214021716489	-0.805804547084379
0.902	1.663577875584247	-0.8240814965937222
0.903	1.7473922516954	-0.8420685393490391
0.904	1.8316201496231057	-0.8597669367286406
0.905	1.9162247791700997	-0.8771794217185351
0.906	2.001169560368964	-0.8943091477642704
0.907	2.0864170723333553	-0.9111592683113173
0.908	2.1719298941769303	-0.9277339879535355
0.909	2.257671235702578	-0.944038772663248
0.91	2.343603676023955	-0.9600784577234697
0.911	2.4296895840250636	-0.9758591397952967
0.912	2.5158919592790223	-0.9913879666885195
0.913	2.6021735911292585	-1.0066718759833886
0.914	2.6884972689191597	-1.021718435948851
0.915	2.7748262024514614	-1.036536266002548
0.916	2.8611238117587074	-1.0511350367107384
0.917	2.9473535168734792	-1.0655237879502202
0.918	3.033478948057899	-1.0797126107466384
0.919	3.119464156033512	-1.093712647274103
0.92	3.205273611981441	-1.1075348294768015
0.921	3.2908719973121974	-1.121190719988153
0.922	3.3762239934365956	-1.1346927223602723
0.923	3.461295122684186	-1.1480532401455037
0.924	3.546051327843637	-1.1612850973554245
0.925	3.6304583414742284	-1.1744021691500002
0.926	3.7144827370540137	-1.1874179102301161
0.927	3.798091508520278	-1.2003464059853546
0.928	3.881252070269808	-1.2132023724946057
0.929	3.9639324673884695	-1.2260003156073733
0.93	4.046101165421475	-1.238754741172472
0.931	4.127727470832923	-1.251480995957871
0.932	4.208781320775918	-1.2641946369615389
0.933	4.289233072863099	-1.2769099598027507
0.934	4.36905434608515	-1.2896425214792449
0.935	4.4482180208109146	-1.302407458529298
0.936	4.526696977409386	-1.3152194870316476
0.937	4.604465357627946	-1.328093533295259
0.938	4.681498564591257	-1.341044313398335
0.939	4.757772421884243	-1.3540865434204536
0.94	4.833263804240411	-1.367234308750968
0.941	4.907950637541271	-1.380502535698614
0.942	4.981811898816953	-1.3939050994235105
0.943	5.054827195786741	-1.4074558750856994
0.944	5.126976346399652	-1.4211693685343783
0.945	5.198240850442207	-1.4350590344701266
0.946	5.268602628160312	-1.4491387480532159
0.947	5.3380444407186864	-1.4634221742139186
0.948	5.40655052089005	-1.4779223471935816
0.949	5.474104680987624	-1.492652721692861
0.95	5.540692415162135	-1.5076263319529501
0.951	5.606300268712964	-1.5228555815261935
0.952	5.670915627858228	-1.5383528739648589
0.953	5.734526509505043	-1.5541301923614452
0.954	5.797122191938917	-1.5701990993496784
0.955	5.85869342505309	-1.586570737103515
0.956	5.919230958740728	-1.6032551966482174
0.957	5.978727645192156	-1.620262569009584
0.958	6.037176967286775	-1.637602734983261
0.959	6.0945736692821475	-1.6552836832978868
0.96	6.150913546584222	-1.6733138231413336
0.961	6.206193235517835	-1.6917011432421636
0.962	6.260411054245405	-1.710452160721165
0.963	6.313565741388812	-1.7295727620095878
0.964	6.365657296948017	-1.7490686233094481
0.965	6.41668698230114	-1.768944579903914
0.966	6.466656479285841	-1.7892044159273823
0.967	6.51556831065851	-1.8098517052847867
0.968	6.563426891242814	-1.830889180962212
0.969	6.610236635862307	-1.852318524797202
0.97	6.65600259002985	-1.8741414186273009
0.971	6.700731060636421	-1.8963587033715095
0.972	6.744428985261967	-1.9189703790297514
0.973	6.787103721946009	-1.9419766558314906
0.974	6.828762418498221	-1.965376903087877
0.975	6.869413484106573	-1.9891696491910602
0.976	6.909066379107496	-2.013353212303267
0.977	6.947729933148247	-2.0379254901275674
0.978	6.985413816795068	-2.0628841701372624
0.979	7.022128331303085	-2.088226098887034
0.98	7.05788356769781	-2.113947282012562
0.981	7.092691088612738	-2.140043935379069
0.982	7.126562036221789	-2.1665112237036905
0.983	7.159507973158381	-2.193343891243951
0.984	7.191541933663862	-2.2205358413386014
0.985	7.222676321290364	-2.2480801364075433
0.986	7.252924590738602	-2.2759694184113703
0.987	7.282300617168714	-2.304195908851213
0.988	7.310818696200088	-2.332750778079813
0.989	7.3384935439116346	-2.361624145301372
0.99	7.3653398763823015	-2.3908061297198615
0.991	7.391373460839387	-2.4202860096208627
0.992	7.416610064510284	-2.45005243260065
0.993	7.441065664852079	-2.4800934155664174
0.994	7.4647558188624155	-2.5103967651956673
0.995	7.487697134687458	-2.540949657476746
0.996	7.509906010243699	-2.571738847938613
0.997	7.5313982127585035	-2.6027508818806897
0.998	7.552190770837403	-2.6339718841429334
0.999	7.572299872167196	-2.665387559105687
1.0	7.591741494205381	-2.696982980460903
1.001	7.610532665556208	-2.7287436423583884
1.002	7.6286895739077485	-2.760654198030787
1.003	7.646228196716657	-2.792698880250896
1.004	7.663164931899369	-2.824862342250516
1.005	7.679516177372375	-2.857128606572523
1.006	7.695297910592715	-2.889481065070867
1.007	7.710525688558088	-2.9219031095994197
1.008	7.725215909184963	-2.954378342241518
1.009	7.739383709011611	-2.98689015485134
1.01	7.75304464503569	-3.0194215188228384
1.011	7.766214274254885	-3.051954774861726
1.012	7.778906682058975	-3.084473314821647
1.013	7.791136374297157	-3.1169601100973177
1.014	7.802917646588894	-3.1493979218530725
1.015	7.81426353317549	-3.1817695112540885
1.016	7.825187278527936	-3.2140578496944694
1.017	7.83570107596873	-3.2462463290281653
1.018	7.845816277901582	-3.278317710419817
1.019	7.8555450776489915	-3.3102555959532194
1.02	7.864897566236477	-3.3420435877117094
1.021	7.8738834142301535	-3.373665287778852
1.022	7.882512502425852	-3.405104298238061
1.023	7.890793240011486	-3.4363448518622866
1.024	7.898734036175011	-3.4673716018833303
1.025	7.9063428796449395	-3.498168991303453
1.026	7.913626708001327	-3.528721673354838
1.027	7.920592038364803	-3.559014931958596
1.028	7.927245177626356	-3.5890340510355294
1.029	7.933591381528399	-3.618764945196363
1.03	7.939635695583711	-3.648193739280749
1.031	7.945383375534753	-3.6773057172098724
1.032	7.950838836205176	-3.706087634512465
1.033	7.95600565149985	-3.734526456947639
1.034	7.960886554404894	-3.762608519584739
1.035	7.9654834369875145	-3.790321208642187
1.036	7.969798401544768	-3.817651910337487
1.037	7.9738327094548005	-3.844588221119136
1.038	7.977586570947335	-3.871118368123486
1.039	7.9810604064817285	-3.897230368258114
1.04	7.984253164909554	-3.922913499808068
1.041	7.987162323474381	-3.9481578819777767
1.042	7.9897845185010565	-3.9729534237417488
1.043	7.992117227233205	-3.99729150568219
1.044	7.994157716684754	-4.021163508381459
1.045	7.995901992491372	-4.044561653341069
1.046	7.9973458500591805	-4.067479843899082
1.047	7.998484033645685	-4.089912193624707
1.048	7.999310236359923	-4.111853236545391
1.049	7.999817941081259	-4.133298768067123
1.05	8.0	-4.154245424514813
1.051	7.999849265306315	-4.174689421754066
1.052	7.999357958501432	-4.194627816568722
1.053	7.998516829478611	-4.214058927121694
1.054	7.997316207671745	-4.2329806511155175
1.055	7.995746632744327	-4.251391516942649
1.056	7.99379885458977	-4.269291104143395
1.057	7.991462571952734	-4.286678151339905
1.058	7.988727904037499	-4.303552448302103
1.059	7.985585390507556	-4.319913784800754
1.06	7.9820243096483905	-4.335762160835401
1.061	7.978034990893743	-4.351099258243892
1.062	7.973607763677662	-4.365926128174616
1.063	7.968731696055671	-4.380244872924732
1.064	7.96339627654299	-4.39405759479094
1.065	7.957590783424873	-4.407367447218866
1.066	7.951303443838402	-4.420178424572827
1.067	7.944522484920291	-4.432494731446683
1.068	7.937236133807542	-4.444321623582759
1.069	7.9294315664885024	-4.455664356724068
1.07	7.921096589640712	-4.466529868450094
1.071	7.912217748563399	-4.476924675881702
1.072	7.902781798785754	-4.4868561370581475
1.073	7.892775916295971	-4.49633245093799
1.074	7.8821866463935075	-4.5053611857901
1.075	7.871001165066709	-4.513951591721352
1.076	7.859206858533694	-4.522112498378888
1.077	7.846790692553115	-4.529852735410273
1.078	7.833739843113469	-4.537182183611228
1.079	7.820042747581301	-4.544110513547821
1.08	7.805687212634112	-4.5506478162455455
1.081	7.79066104494925	-4.556804182730121
1.082	7.774953522812489	-4.562590334715892
1.083	7.758553504049489	-4.568016783688001
1.084	7.7414494260269855	-4.5730942513608674
1.085	7.723631407948948	-4.577834090138371
1.086	7.705088938330842	-4.582247442194315
1.087	7.685812136376526	-4.586345870162463
1.088	7.6657913315200465	-4.590141146905468
1.089	7.645016853195106	-4.593644835057058
1.09	7.623480292214062	-4.5968691279396126
1.091	7.601172608699581	-4.599826429105402
1.092	7.57808581392333	-4.602528721647039
1.093	7.5542114986972475	-4.604988829576409
1.094	7.529541884522731	-4.607219366675087
1.095	7.504070454278762	-4.60923273649565
1.096	7.477789639696586	-4.611042393738407
1.097	7.450693133884877	-4.612661372644859
1.098	7.422775260642118	-4.614102076767197
1.099	7.394029923306867	-4.615377960806116
1.1	7.364452076366494	-4.61650205900277
1.101	7.334037725456487	-4.617486985139236
1.102	7.302782455753562	-4.6183459836864
1.103	7.270683324041597	-4.619091247966875
1.104	7.2377375973347355	-4.619734971302967
1.105	7.203943383565474	-4.620289977706484
1.106	7.1692996315856155	-4.620767619580922
1.107	7.133805500476082	-4.621179039100507
1.108	7.097461831155911	-4.621536219357853
1.109	7.060269464543648	-4.621849671838027
1.11	7.0222296620177165	-4.622129908025794
1.111	6.983344946334242	-4.622387439406261
1.112	6.943618681168695	-4.622632146774999
1.113	6.903054230195931	-4.622873910928035
1.114	6.861655377550885	-4.623122612661091
1.115	6.8194265380569545	-4.623387502081004
1.116	6.776373387915928	-4.62367761906457
1.117	6.732501393100128	-4.624002423948432
1.118	6.687816440041264	-4.624370536150118
1.119	6.64232525608928	-4.624790364857574
1.12	6.596034568594888	-4.625270739718136
1.121	6.548952156056575	-4.6258196494604045
1.122	6.501086217432977	-4.626444452123632
1.123	6.452445161911663	-4.627152715977226
1.124	6.403038449829272	-4.62795158883067
1.125	6.352875751752525	-4.628847377575519
1.126	6.301967579164311	-4.62984638910126
1.127	6.250324864010956	-4.630954299611212
1.128	6.197958958695502	-4.632175944387929
1.129	6.144882476999908	-4.633516158714427
1.13	6.0911082429356735	-4.634978936955139
1.131	6.036649711203533	-4.636568063244424
1.132	5.981520756963528	-4.6382862705685595
1.133	5.9257358860650085	-4.640136291913323
1.134	5.869310235045869	-4.642120229576104
1.135	5.812259781363845	-4.644239344934755
1.136	5.754600502475221	-4.646494899367662
1.137	5.696348796297119	-4.648887523563752
1.138	5.637522322123672	-4.651416797063868
1.139	5.578138739249932	-4.6540822994083175
1.14	5.518215706970261	-4.656883610137945
1.141	5.457771935728173	-4.659818626955629
1.142	5.3968267666554235	-4.662885457794248
1.143	5.3353989101955275	-4.666081790126873
1.144	5.273508548399317	-4.669404470508302
1.145	5.211175653088463	-4.672850555722448
1.146	5.148420616543187	-4.676415841175645
1.147	5.085264251504163	-4.6800954915847255
1.148	5.021727580940762	-4.6838853023556375
1.149	4.9578320482824365	-4.687780227975712
1.15	4.893598886728632	-4.691773961553988
1.151	4.8290501703977995	-4.69586040642914
1.152	4.764207763178391	-4.700033465940109
1.153	4.699093739188856	-4.704285992276934
1.154	4.633730382776957	-4.708610417170629
1.155	4.5681401885209105	-4.712999172351941
1.156	4.502345230538481	-4.71744426909246
1.157	4.436368213637654	-4.721937087974432
1.158	4.370231632395426	-4.726469219810002
1.159	4.303958191619863	-4.731031204262681
1.16	4.237570806347878	-4.735613370766479
1.161	4.171091340467925	-4.740206258984867
1.162	4.104543129476534	-4.744799567662641
1.163	4.037949088411234	-4.749383205774251
1.164	3.9713310811600944	-4.753946031145798
1.165	3.904712443220029	-4.758477322062578
1.166	3.838115879398031	-4.762965726120901
1.167	3.7715638842722434	-4.76739968068733
1.168	3.705079372879506	-4.771767623128579
1.169	3.638684419338345	-4.776057149892322
1.17	3.5724021489154465	-4.780256067656119
1.171	3.5062548459588774	-4.784351972867722
1.172	3.4402643743570125	-4.7883326722047475
1.173	3.37445364914738	-4.792184710966347
1.174	3.3088447444480478	-4.7958948446816345
1.175	3.243459103688311	-4.799450669798361
1.176	3.1783185907566973	-4.802838521386216
1.177	3.113444859312348	-4.806044944744411
1.178	3.0488589323247886	-4.8090564851723245
1.179	2.9845820429938517	-4.811859687969208
1.18	2.920634583599908	-4.814441098434404
1.181	2.8570367361945532	-4.816787051637527
1.182	2.793808472598391	-4.818884092877899
1.183	2.7309695544037838	-4.82071897768452
1.184	2.668538692053329	-4.822278251356658
1.185	2.6065343857607743	-4.823548459193675
1.186	2.5449751357393295	-4.82451719764338
1.187	2.483877970594891	-4.825171432464427
1.188	2.4232603393922036	-4.825498129415565
1.189	2.3631392707369345	-4.825484884944563
1.19	2.3035307420858255	-4.82511929549927
1.191	2.2444505206666907	-4.824389377986804
1.192	2.1859143737067326	-4.8232825186253745
1.193	2.1279372275143817	-4.821786944551784
1.194	2.0705340083983743	-4.819890882902978
1.195	2.0137196426673705	-4.817582560815826
1.196	1.957508005481182	-4.814850415656974
1.197	1.901912972000234	-4.81168246433354
1.198	1.8469484173842625	-4.808067985130982
1.199	1.7926277963342292	-4.803995415415844
1.2	1.7389637226317893	-4.7994538232438515
1.201	1.6859688100592094	-4.794432486900385
1.202	1.633655672397991	-4.788920894900529
1.203	1.5820358722817829	-4.782908956218742
1.204	1.5311205518844657	-4.776386579829545
1.205	1.4809204329207635	-4.769344515626171
1.206	1.4314453961863987	-4.761773513501936
1.207	1.3827057429366327	-4.753664954039182
1.208	1.3347103028187237	-4.745010638279699
1.209	1.2874672747911562	-4.735802577494929
1.21	1.2409848578117264	-4.726033203415761
1.211	1.1952704099203006	-4.715695998921518
1.212	1.150331078926363	-4.704784446891579
1.213	1.1061729614913924	-4.693292240434968
1.214	1.062801944046486	-4.68121391357956
1.215	1.020223702794119	-4.668544631042275
1.216	0.978442652557461	-4.655279767769764
1.217	0.9374636286197565	-4.641414908938341
1.218	0.8972908355750181	-4.6269469011025635
1.219	0.8579274268687165	-4.611871960127833
1.22	0.8193767661758629	-4.596187563257787
1.221	0.7816413762530025	-4.579892028654829
1.222	0.7447239900859908	-4.562983043792291
1.223	0.7086264997426	-4.545459557521665
1.224	0.6733499563706831	-4.527321149383572
1.225	0.6388960418084721	-4.5085673989186015
1.226	0.6052649662849718	-4.489198516356461
1.227	0.5724571502602565	-4.469215342615934
1.228	0.5404730141932531	-4.448619559534618
1.229	0.5093108762466473	-4.427413269409485
1.23	0.4789703159606708	-4.405598784767225
1.231	0.44944965149831523	-4.383179048823608
1.232	0.420746360102653	-4.36015805594291
1.233	0.39285833947713683	-4.336540431178477
1.234	0.3657818054867579	-4.31233122004309
1.235	0.3395129739974251	-4.287536308968278
1.236	0.3140476404145907	-4.262161584385605
1.237	0.2893805489965422	-4.236214404334515
1.238	0.2655062337704211	-4.209702757543538
1.239	0.24241901853482312	-4.182634422511496
1.24	0.22011280662819316	-4.155018228885742
1.241	0.1985808707005091	-4.126863637002687
1.242	0.17781648340113695	-4.098180107198748
1.243	0.15781291737990166	-4.068977520269759
1.244	0.13856323505655277	-4.039266597930317
1.245	0.12006091931083757	-4.009057851665333
1.246	0.10229882233258321	-3.978362423648835
1.247	0.08527042700161351	-3.9471916662845303
1.248	0.06896921619668152	-3.915556511516703
1.249	0.0533882523383016	-3.883469362897581
1.25	0.038520808075610334	-3.8509424137500847
1.251	0.024359735599276136	-3.817988067625114
1.252	0.010898517788740411	-3.7846195689949513
1.253	-0.0018702033959391727	-3.7508499521004657
1.254	-0.013954416682866086	-3.7166937227908634
1.255	-0.02536253126021807	-3.682165597144969
1.256	-0.036102746086097495	-3.6472805014714123
1.257	-0.04618410103745509	-3.6120542029975304
1.258	-0.05561647691016645	-3.576503099639815
1.259	-0.06440975450033658	-3.540644220003807
1.26	-0.0725744452924611	-3.5044948029247607
1.261	-0.08012148123118638	-3.4680731383864525
1.262	-0.08706221471993286	-3.4313975163726296
1.263	-0.09340820839227287	-3.394486647326406
1.264	-0.09917123511124225	-3.3573596621503485
1.265	-0.10436348819956871	-3.3200361122064206
1.266	-0.10899695074959866	-3.2825357590862296
1.267	-0.11308402631398222	-3.2448783643814023
1.268	-0.1166373286742212	-3.2070843203727017
1.269	-0.1196688409235033	-3.1691740193408724
1.27	-0.1221911768434833	-3.1311676433369073
1.271	-0.12421673998650537	-3.093085794871254
1.272	-0.12575772367483837	-3.05494928668407
1.273	-0.12682653146097944	-3.0167789315154194
1.274	-0.12743556689689037	-2.978595542105537
1.275	-0.12759660284576	-2.9404199311944277
1.276	-0.12732162240031708	-2.902273121752021
1.277	-0.12662281888336588	-2.864175926518417
1.278	-0.12551175492786681	-2.826149368463411
1.279	-0.12400041362700762	-2.7882144705568725
1.28	-0.12210035761374873	-2.750392465998309
1.281	-0.1198235699815073	-2.712704377757553
1.282	-0.11718182359286029	-2.6751714390341097
1.283	-0.11418647085176353	-2.637814883027544
1.284	-0.11085054599933421	-2.6006563633967668
1.285	-0.10718645258806948	-2.5637177440303827
1.286	-0.1032057532510063	-2.5270198376685116
1.287	-0.09892127200018073	-2.49058471842949
1.288	-0.09434541238717217	-2.454433829742593
1.289	-0.0894912086539391	-2.4185888252666556
1.29	-0.08437127458190685	-2.3830711484309735
1.291	-0.07899801372364905	-2.3479016119756277
1.292	-0.07338446031990048	-2.3131018695595498
1.293	-0.0675432281532337	-2.278692313463512
1.294	-0.06148672077538106	-2.2446933359682104
1.295	-0.05522671104968432	-2.2111246986652815
1.296	-0.04877560252810527	-2.1780057426870143
1.297	-0.042144957844369196	-2.1453553887061587
1.298	-0.035346129401743594	-2.1131923471659624
1.299	-0.028390679834336147	-2.081534277361056
1.3	-0.02128933085595303	-2.0503984181266453
1.301	-0.014053224641163015	-2.019801798068301
1.302	-0.006693293133924142	-1.9897606048728784
1.303	0.0007799521805796528	-1.9602910262270812
1.304	0.008355789587930344	-1.9314086191285906
1.305	0.016023287143634532	-1.9031287303452993
1.306	0.023772353822429586	-1.8754656554968456
1.307	0.03159247813897861	-1.8484341106620246
1.308	0.03947104631193275	-1.8220486016900144
1.309	0.04739754685587864	-1.796322373051797
1.31	0.05536188874570659	-1.7712684589887386
1.311	0.0633535604961562	-1.7468994732825893
1.312	0.07136205062250242	-1.7232273990263458
1.313	0.07937663741009776	-1.700263588623562
1.314	0.0873876502929126	-1.6780193944780222
1.315	0.09538541870461134	-1.656504487155813
1.316	0.10336027207931732	-1.635728537223117
1.317	0.11130275008031143	-1.6157003743270966
1.318	0.1192044435200278	-1.596427566737081
1.319	0.12705652275082627	-1.577917892951806
1.32	0.13485078881483387	-1.5601778700919828
1.321	0.14257925298287644	-1.5432131743593793
1.322	0.15023434698654234	-1.5270288512668178
1.323	0.1578085025561963	-1.5116295258676393
1.324	0.1652941514230443	-1.4970189822964322
1.325	0.17268435600660642	-1.483199953539224
1.326	0.17997217872739701	-1.4701751725821572
1.327	0.1871508922346292	-1.4579461110330636
1.328	0.19421334871866536	-1.4465136098108107
1.329	0.2011532412885635	-1.4358782996043626
1.33	0.20796405282399438	-1.4260395497247935
1.331	0.21463947643348058	-1.416996098793754
1.332	0.22117362568569537	-1.4087458445143914
1.333	0.22755998346015663	-1.4012862641302366
1.334	0.23379245309553875	-1.394613993966145
1.335	0.239865989078828	-1.3887244089687372
1.336	0.2457751254381601	-1.3836124636253628
1.337	0.25151397574182593	-1.3792722715042747
1.338	0.2570777047068871	-1.3756964745662186
1.339	0.2624616872797924	-1.3728779250013277
1.34	0.26766087794813986	-1.370807793162363
1.341	0.2726712823472277	-1.3694764084831041
1.342	0.27748890611319543	-1.3688736799381735
1.343	0.2821097548812647	-1.3689880448940182
1.344	0.28653088543634575	-1.3698073100282542
1.345	0.29074956479166514	-1.3713184410994586
1.346	0.2947624292724413	-1.3735073527180113
1.347	0.2985675868112844	-1.3763591185751756
1.348	0.3021635658005733	-1.3798583919031546
1.349	0.30554805371307325	-1.3839883543258413
1.35	0.30871999940093137	-1.3887313465488156
1.351	0.3116783517150709	-1.3940699195070065
1.352	0.31442184927771644	-1.3999847320681826
1.353	0.3169498613994067	-1.4064564431000746
1.354	0.319261967621291	-1.4134652910111218
1.355	0.32135711679421625	-1.4209898323719918
1.356	0.3232348884594083	-1.4290094646724478
1.357	0.32489507238663884	-1.4375021137939061
1.358	0.3263368276575184	-1.4464448646994499
1.359	0.32756015427166457	-1.4558150125815887
1.36	0.32856484199999625	-1.4655892219438669
1.361	0.3293506806120556	-1.4757426856817493
1.362	0.3299180905677639	-1.4862503864613132
1.363	0.3302674923262013	-1.4970870967186374
1.364	0.330399516576829	-1.508226327511834
1.365	0.3303156349271919	-1.5196409592097444
1.366	0.3300175292150633	-1.5313030312626303
1.367	0.3295066710481409	-1.5431843728906773
1.368	0.3287853729534299	-1.5552561826255278
1.369	0.3278565781464024	-1.5674883976200542
1.37	0.3267225991538341	-1.5798507447978185
1.371	0.32538679965088896	-1.5923129510823064
1.372	0.32385275354265347	-1.6048439024781551
1.373	0.32212319381475385	-1.617412274760194
1.374	0.32020148414296595	-1.6299865334738655
1.375	0.31809098820184195	-1.6425353543942285
1.376	0.31579464920731287	-1.655027203065999
1.377	0.31331520014592273	-1.6674299143458464
1.378	0.31065600469230026	-1.679712164008562
1.379	0.30782000606245286	-1.6918417869104325
1.38	0.3048099372424657	-1.703787038366749
1.381	0.3016283209887309	-1.715516173693337
1.382	0.2982776800573347	-1.7269970277462545
1.383	0.2947617985833624	-1.7381972251519424
1.384	0.2910840402416721	-1.7490839700774556
1.385	0.28724797893712084	-1.7596248871493887
1.386	0.28325760903395153	-1.7697863396158333
1.387	0.2791173453560225	-1.7795353214142666
1.388	0.2748316027267332	-1.7888386162522814
1.389	0.2704043755107854	-1.7976623771486206
1.39	0.26584091945012106	-1.8059733878108775
1.391	0.2611458595983679	-1.8137382217169131
1.392	0.25632361077907834	-1.820923662574435
1.393	0.25137837758657067	-1.8274969145506896
1.394	0.24631415438447601	-1.8334256022718887
1.395	0.2411353559970351	-1.8386775605944723
1.396	0.2358455563287225	-1.8432210448337307
1.397	0.23044832928500705	-1.8470251512241473
1.398	0.22494745899959748	-1.850058976000014
1.399	0.21934693983742498	-1.8522924563146237
1.4	0.2136501354733477	-1.8536959497803498
1.401	0.2078606198123756	-1.8542400242395265
1.402	0.2019825974482916	-1.8538962986827612
1.403	0.19601964228633512	-1.8526366023306984
1.404	0.1899751180011348	-1.8504333950926413
1.405	0.183852598498236	-1.847259767567469
1.406	0.1776552372224214	-1.8430896512722967
1.407	0.17138597739008096	-1.837897608413816
1.408	0.16504776221645737	-1.8316586216579136
1.409	0.15864311445840165	-1.824348724818902
1.41	0.15217497733123306	-1.8159443721706716
1.411	0.14564545313249308	-1.806422858905846
1.412	0.1390562236990372	-1.7957625313652843
1.413	0.13241023224733178	-1.7839419461200356
1.414	0.12570937084430772	-1.7709402904296547
1.415	0.11895532132766169	-1.7567378027028109
1.416	0.11215060645347992	-1.741315562266563
1.417	0.10529690805991805	-1.7246550689073947
1.418	0.09839611821367743	-1.7067388735604063
1.419	0.09145033921222315	-1.6875501578496637
1.42	0.08446083243333062	-1.6670731545478108
1.421	0.07742927971507901	-1.6452931475761874
1.422	0.07035715266463077	-1.6221960515446372
1.423	0.0632452922015226	-1.5977690424418511
1.424	0.056094539244143975	-1.5720005576342568
1.425	0.04890552448172678	-1.5448800856370908
1.426	0.04167824791411805	-1.516398166113749
1.427	0.03441270954154722	-1.486546810335898
1.428	0.02710848890432244	-1.455319080723326
1.429	0.019764534854361245	-1.4227093010742846
1.43	0.012380006472356382	-1.388712846335337
1.431	0.004953221921222973	-1.3533263528313957
1.432	-0.002517500637041646	-1.3165483489544951
1.433	-0.010034473728601272	-1.2783773630968611
1.434	-0.017599799651150428	-1.2388138157175734
1.435	-0.02521621139016238	-1.1978598091140593
1.436	-0.03288707262110707	-1.1555176558127498
1.437	-0.040615116329840176	-1.1117909297185404
1.438	-0.048404336881063506	-1.0666848865738319
1.439	-0.05625872863848464	-1.0202060434994504
1.44	-0.06418228596688189	-0.9723613380751877
1.441	-0.07217921345965579	-0.9231593897189525
1.442	-0.08025434640050949	-0.8726098689966216
1.443	-0.08841315076115433	-0.8207232873933408
1.444	-0.09666109251383702	-0.7675116280016475
1.445	-0.10500363763065128	-0.712988345522504
1.446	-0.11344688277322865	-0.6571671048861444
1.447	-0.12199734506174532	-0.6000634630901929
1.448	-0.13066196207645178	-0.5416942385105842
1.449	-0.13944767139729253	-0.48207624952321504
1.45	-0.1483616208342875	-0.4212284168008352
1.451	-0.15741116842638478	-0.3591707121649653
1.452	-0.16660409267291262	-0.29592373812582246
1.453	-0.17594796184274156	-0.23150872788300864
1.454	-0.18545034420527737	-0.1659483862439766
1.455	-0.19511964894793304	-0.09926646916460571
1.456	-0.20496302388095794	-0.03148694283050659
1.457	-0.214988667962225	0.037365385653900046
1.458	-0.22520414946121647	0.10726423757638094
1.459	-0.23561724687641944	0.17818291376520212
1.46	-0.2462359489368551	0.25009429458935845
1.461	-0.257067613681395	0.32296999903949575
1.462	-0.26812022983890754	0.3967810154173338
1.463	-0.2794013656782632	0.47149791156501536
1.464	-0.2909187996988666	0.5470904144061025
1.465	-0.30268031039882237	0.6235274099451559
1.466	-0.3146932558182259	0.7007775739571961
1.467	-0.3269652042256416	0.7788087412982808
1.468	-0.33950414435009085	0.8575885365950424
1.469	-0.3523172240009817	0.9370835333252658
1.47	-0.3654122216773364	1.0172598845076561
1.471	-0.37879628518863956	1.0980837431607655
1.472	-0.39247698280445004	1.179520211154681
1.473	-0.4064618827935618	1.2615341801297586
1.474	-0.42075750227683933	1.3440903314967763
1.475	-0.43537161975269323	1.427152926206896
1.476	-0.4503109625721398	1.510685594522393
1.477	-0.4655822580849717	1.59465196670535
1.478	-0.48119223364197594	1.6790150423291161
1.479	-0.4971471961336357	1.763738031196236
1.48	-0.513453872910738	1.8487841431096748
1.481	-0.5301181504043798	1.9341151162642025
1.482	-0.5471461252761166	2.0196937400034365
1.483	-0.5645434737278113	2.10548238321115
1.484	-0.5823158719611742	2.191443204541843
1.485	-0.600468996178145	2.277538152419902
1.486	-0.6190081021212009	2.363728965040518
1.487	-0.6379384455326662	2.4499778010577713
1.488	-0.6572650719255547	2.53624660889643
1.489	-0.6769923961231893	2.6224975472106893
1.49	-0.6971248329495048	2.7086923541955485
1.491	-0.7176676381467489	2.7947933987348947
1.492	-0.7386241753903917	2.8807632599425768
1.493	-0.7599982288147538	2.96656430670252
1.494	-0.7817942132436932	3.052159748817574
1.495	-0.8040150718926059	3.1375125858607444
1.496	-0.8266639582074217	3.222586237864651
1.497	-0.8497442358629986	3.307344755550839
1.498	-0.8732584276158819	3.3917523998705854
1.499	-0.8972088459926177	3.4757740624642475
1.5	-0.9215978035202876	3.5593744247429457
1.501	-0.9464267718060541	3.642519009035007
1.502	-0.9716978531473822	3.725174388819593
1.503	-0.9974118884631967	3.807306717114796
1.504	-1.023569298212578	3.888882987858056
1.505	-1.0501711335441433	3.969871246135199
1.506	-1.0772171842280471	4.050239326802435
1.507	-1.104707029805286	4.129955905634672
1.508	-1.132640039586245	4.208990709555433
1.509	-1.1610149521931494	4.287313465488087
1.51	-1.1898305062476118	4.364894531045201
1.511	-1.2190850199121646	4.441705735447227
1.512	-1.2487757602003406	4.517718907914505
1.513	-1.2789006248158983	4.592906718586412
1.514	-1.3094566705422945	4.667242678520792
1.515	-1.3404405337049776	4.740700719235221
1.516	-1.371848640398555	4.813256454084588
1.517	-1.4036769962590896	4.884885916883318
1.518	-1.435921396692416	4.955565141445822
1.519	-1.4685770064158254	5.0252724741131685
1.52	-1.5016387799161512	5.09398647145612
1.521	-1.5351014614512983	5.161686320734594
1.522	-1.568958954359559	5.2283528910459385
1.523	-1.6032049517503735	5.293967471947134
1.524	-1.6378331467325702	5.358512404143454
1.525	-1.672835760807509	5.421971499948159
1.526	-1.7082052257059372	5.484329202363528
1.527	-1.7439337629289855	5.545570585081074
1.528	-1.7800127530590124	5.605682824089104
1.529	-1.8164329459894508	5.664653305605812
1.53	-1.8531848813837346	5.72247025676797
1.531	-1.8902590989056034	5.779123796779893
1.532	-1.9276452972995666	5.834604675534766
1.533	-1.9653325446215892	5.888904483844678
1.534	-2.003310329386564	5.942016284129648
1.535	-2.0415672991909948	5.993933138809539
1.536	-2.080091470941616	6.044650212601336
1.537	-2.118871282005621	6.094163090681392
1.538	-2.157894539060282	6.142468199144791
1.539	-2.1971488385532543	6.189563435694605
1.54	-2.236621566702578	6.235446908263521
1.541	-2.276299899497211	6.2801181963920945
1.542	-2.3161705924653484	6.323577089850708
1.543	-2.356220611366332	6.365825270476927
1.544	-2.39643671172897	6.406864420108312
1.545	-2.43680501839322	6.4466968512715646
1.546	-2.4773120766581194	6.485326558330925
1.547	-2.5179442215936256	6.522757325420984
1.548	-2.558686947350388	6.558993987824812
1.549	-2.5995265889982107	6.594042852433333
1.55	-2.6404490611470526	6.6279104363672
1.551	-2.6814394374884833	6.660603466976791
1.552	-2.722483632632539	6.692130143220291
1.553	-2.763567350960096	6.72249950497476
1.554	-2.8046752457026516	6.751720592117193
1.555	-2.845792600781849	6.779803495673132
1.556	-2.886904910348186	6.806758937357195
1.557	-2.9279961969446906	6.8325986900324756
1.558	-2.969051744492549	6.85733473679174
1.559	-3.0100562062238674	6.880979691416964
1.56	-3.0509940251406023	6.903546798379082
1.561	-3.091850064704706	6.925049932838174
1.562	-3.1326083474592075	6.9455038108731495
1.563	-3.173253526636137	6.964923148562885
1.564	-3.2137700452373728	6.983323082445643
1.565	-3.2541427667254044	7.000719589978505
1.566	-3.294356344331497	7.017129279307628
1.567	-3.334395010828755	7.03256833811978
1.568	-3.3742438399085173	7.047053795020522
1.569	-3.4138876950325088	7.060603309304511
1.57	-3.4533114396620697	7.073234119807011
1.571	-3.4925005679486913	7.084964096052367
1.572	-3.5314403638130245	7.095811528024339
1.573	-3.5701161111762554	7.105794705706668
1.574	-3.6085137246487253	7.1149323395425075
1.575	-3.646619118840546	7.123243350204699
1.576	-3.6844184185917523	7.130746237906702
1.577	-3.721898379431305	7.137460133551039
1.578	-3.7590457568880105	7.143404168040276
1.579	-3.795847096261519	7.148597682506633
1.58	-3.8322897837694114	7.153060018082383
1.581	-3.868361626089954	7.156809885210636
1.582	-3.9040502196702667	7.159867465942459
1.583	-3.9393437916476968	7.1622518911803645
1.584	-3.974230989618135	7.163982081597238
1.585	-4.008700250948621	7.165077798784677
1.586	-4.042741064153895	7.1655583838749655
1.587	-4.076342707519385	7.165442757540896
1.588	-4.1094948797899065	7.16475005068506
1.589	-4.142188330858968	7.163499394209977
1.59	-4.174413179930466	7.16170886786971
1.591	-4.206160387127449	7.159397182107384
1.592	-4.237421543262121	7.156582837136505
1.593	-4.268188659605767	7.153282861562549
1.594	-4.298453747429825	7.1495149146802515
1.595	-4.328209238465272	7.14529644555451
1.596	-4.357448615591472	7.140643852101846
1.597	-4.386165571917407	7.135573322008933
1.598	-4.414353800552134	7.130100832732984
1.599	-4.442007625293944	7.124241520812128
1.6	-4.469122421089208	7.118010733014462
1.601	-4.49569293219591	7.111423605878166
1.602	-4.52171474378973	7.1044944350228
1.603	-4.54718407173673	7.09723793652718
1.604	-4.5720967114425175	7.089667985551443
1.605	-4.5964499299211585	7.081797826566552
1.606	-4.620240363497566	7.073640914273182
1.607	-4.643465068956038	7.06521091360174
1.608	-4.666122154228956	7.056520438334186
1.609	-4.6882095170196205	7.047582312482002
1.61	-4.709725265260563	7.03840851913807
1.611	-4.730668558033166	7.029009569787249
1.612	-4.751039605567046	7.019397027062995
1.613	-4.770837987402741	7.00958077176109
1.614	-4.7900643342294815	6.9995704744476965
1.615	-4.8087201176551195	6.989376015918576
1.616	-4.826807019517045	6.979006225821119
1.617	-4.8443275625718805	6.968468672424408
1.618	-4.861285110494713	6.957770083078846
1.619	-4.877683447420168	6.946917185134723
1.62	-4.8935269881718	6.935916075253308
1.621	-4.908820357803158	6.924772850095792
1.622	-4.923568601826646	6.913492765404825
1.623	-4.937777606674125	6.902079815544458
1.624	-4.951452838317689	6.8905377846493945
1.625	-4.964601024108201	6.8788700363954485
1.626	-4.977228681164767	6.867079093536832
1.627	-4.989342326609474	6.855167268602501
1.628	-5.000949108251732	6.843136453658851
1.629	-5.012055543211793	6.830988961232772
1.63	-5.0226689895296746	6.818726052702231
1.631	-5.0327972257037885	6.806347938297073
1.632	-5.042447609773771	6.793855458935956
1.633	-5.0516279202382615	6.781249035078571
1.634	-5.060346356055822	6.768528876954306
1.635	-5.068610485495245	6.755695194792969
1.636	-5.076428507515095	6.7427481988241755
1.637	-5.083809672221705	6.729687468588769
1.638	-5.090762178573565	6.716511952937942
1.639	-5.097294645988274	6.703220600723533
1.64	-5.103417375721095	6.6898123607967355
1.641	-5.109139407648864	6.6762853410904635
1.642	-5.114470622567724	6.662637439307637
1.643	-5.119421531962172	6.648865922462282
1.644	-5.124002647317505	6.634967847338509
1.645	-5.128225321037144	6.620939009342496
1.646	-5.132100695295351	6.606775203880115
1.647	-5.135640753184627	6.592471805898083
1.648	-5.138857477798121	6.5780231391944595
1.649	-5.14176369314718	6.563423948027036
1.65	-5.144371592554417	6.548668135734296
1.651	-5.146693789801564	6.53374918519564
1.652	-5.148743529359813	6.518660369060821
1.653	-5.150533425010972	6.503395590668624
1.654	-5.152076090537078	6.4879481226684925
1.655	-5.153384139719671	6.4723110274805595
1.656	-5.15447039657075	6.456477998213768
1.657	-5.15534663395312	6.44044293820706
1.658	-5.15602525541924	6.424199120109838
1.659	-5.1565178236023	6.407740657490778
1.66	-5.156835901135796	6.391061874147786
1.661	-5.156991260882841	6.374156252960532
1.662	-5.1569952552471605	6.357017907497041
1.663	-5.156859026402597	6.339641582015331
1.664	-5.156593506293682	6.322021179853735
1.665	-5.156210047323989	6.304150394121575
1.666	-5.155719791667628	6.286023758846531
1.667	-5.155133881498441	6.267634967137812
1.668	-5.15446282830165	6.248977712104323
1.669	-5.153718194710255	6.2300461073147
1.67	-5.1529113331283245	6.210833845877656
1.671	-5.152052334581046	6.191334200443284
1.672	-5.151152761702183	6.171540864120297
1.673	-5.150223546435693	6.151447740247524
1.674	-5.149275410496491	6.131047891245018
1.675	-5.148319496058383	6.110335010221724
1.676	-5.147366104376704	6.089302790286699
1.677	-5.146425746936257	6.067944714319615
1.678	-5.14550872499238	6.046254475428917
1.679	-5.1446255500298745	6.024225766724198
1.68	-5.143786102844654	6.001852491543828
1.681	-5.1430000540027105	5.979129183915865
1.682	-5.142276653610955	5.956050167638446
1.683	-5.1416249415462625	5.932609346050322
1.684	-5.141054167915504	5.908801883868325
1.685	-5.140572321446977	5.8846231560392095
1.686	-5.140187390869433	5.8600681170501145
1.687	-5.1399073649112825	5.835132352077489
1.688	-5.139739391382468	5.809811866756936
1.689	-5.1396899874032815	5.784103297413445
1.69	-5.139765670094663	5.758002649682466
1.691	-5.139972746347479	5.731506559889218
1.692	-5.140317102593324	5.704612295047387
1.693	-5.1408042048041755	5.677316701711579
1.694	-5.1414390984930485	5.649617467354863
1.695	-5.14222619848338	5.6215118589916155
1.696	-5.143170340058338	5.592997353864983
1.697	-5.144276148271284	5.564072059908189
1.698	-5.145547197027188	5.534733874823769
1.699	-5.146987270460371	5.504981116774254
1.7	-5.148599522016533	5.474812103922255
1.701	-5.150387105140993	5.444225154430227
1.702	-5.15235275281995	5.413219006919554
1.703	-5.154498777579952	5.381792820471921
1.704	-5.156827281718155	5.349946174627563
1.705	-5.159339316382969	5.317678438697628
1.706	-5.162036353182206	5.284989192222502
1.707	-5.164919233034733	5.2518786454323365
1.708	-5.167988166170282	5.218347429015598
1.709	-5.1712433628184495	5.184396383891518
1.71	-5.174683771830886	5.150026350978715
1.711	-5.178308972748053	5.115238591655499
1.712	-5.182117704191829	5.080034577529569
1.713	-5.186108074094922	5.044415990438775
1.714	-5.190278190390094	5.008385353139278
1.715	-5.194625740550513	4.971944557698547
1.716	-5.199148201819978	4.935095916642819
1.717	-5.203842000293535	4.89784216295887
1.718	-5.208703982525713	4.860186029632172
1.719	-5.213730574611619	4.822130670108502
1.72	-5.218917571957354	4.7836790276035615
1.721	-5.22426034950948	4.7448342555628225
1.722	-5.229754492444409	4.705599927891141
1.723	-5.235394955249316	4.665979618493528
1.724	-5.241175851492705	4.625976691044992
1.725	-5.247091925432039	4.585595350139549
1.726	-5.253137290635858	4.544839379911594
1.727	-5.259305219753758	4.503712564496289
1.728	-5.265589195665123	4.462219318716575
1.729	-5.27198270124926	4.420364057396386
1.73	-5.278477747777721	4.378151195359428
1.731	-5.28506718744066	4.3355851474294065
1.732	-5.29174324173932	4.292670538659566
1.733	-5.298497291256024	4.249412624792766
1.734	-5.305321557491958	4.205816241111336
1.735	-5.312206790340403	4.161886433128668
1.736	-5.319144160154043	4.117628877046245
1.737	-5.326124416826081	4.07304903883639
1.738	-5.333137889790508	4.028152384471197
1.739	-5.34017469825137	3.9829448003822967
1.74	-5.347224751183301	3.937432383230788
1.741	-5.354278167790367	3.891621439907917
1.742	-5.361323805898603	3.8455180670745515
1.743	-5.368350733563666	3.799128571621939
1.744	-5.375348439300709	3.7524598911298717
1.745	-5.382305780935649	3.7055185427192896
1.746	-5.38921077537573	3.658311253740139
1.747	-5.396052070217235	3.610844961772976
1.748	-5.40281789259707	3.563127024856902
1.749	-5.409495838962996	3.5151643805720907
1.75	-5.4160741364525515	3.4669643869580256
1.751	-5.422540381511709	3.418534402053425
1.752	-5.4288817501306985	3.3698819941286136
1.753	-5.43508604898641	3.321015151911311
1.754	-5.441140454067232	3.2719412334413076
1.755	-5.447031720902207	3.222668227446936
1.756	-5.452746815250008	3.1732039124272955
1.757	-5.458272913099057	3.1235564873403345
1.758	-5.463596769978353	3.0737345716038478
1.759	-5.4687049311872205	3.0237457334867064
1.76	-5.473584362484346	2.973598592407086
1.761	-5.47822160916906	2.923301767782093
1.762	-5.482603426770358	2.8728634585702117
1.763	-5.486716781046951	2.8222920739593147
1.764	-5.490548007068447	2.771596653826429
1.765	-5.494084070593553	2.720785607359426
1.766	-5.497312147610676	2.6698673437465605
1.767	-5.5002189936488275	2.6188513233235566
1.768	-5.5027919949261035	2.5677459552792046
1.769	-5.505018117201213	2.5165600692600734
1.77	-5.5068845364625645	2.465302915373572
1.771	-5.508378428698557	2.4139841641851176
1.772	-5.5094871801273	2.3626126453426566
1.773	-5.510198387196586	2.311198029411913
1.774	-5.510499225894828	2.259750617648301
1.775	-5.510376872210427	2.208279870388081
1.776	-5.509818922591189	2.156796299116513
1.777	-5.508813183714598	2.1053104153180167
1.778	-5.507346621339389	2.0538331509371615
1.779	-5.505407252372734	2.002375227688518
1.78	-5.502982883492141	1.9509477877463504
1.781	-5.500061321375113	1.8995623937436945
1.782	-5.496631003388244	1.8482299776250442
1.783	-5.492680156668425	1.7969623122533587
1.784	-5.488197849271345	1.7457709602622868
1.785	-5.483172939023003	1.6946674842850185
1.786	-5.477594914438476	1.6436634469550495
1.787	-5.471454104951652	1.5927706211353392
1.788	-5.464740419537013	1.5420007796894588
1.789	-5.4574448183175255	1.4913650647907535
1.79	-5.449558681875566	1.4408754595326403
1.791	-5.441073390793487	1.3905435265480797
1.792	-5.431980535883385	1.3403810387002606
1.793	-5.422272969335499	1.2903993483929095
1.794	-5.411943753569799	1.2406102284895206
1.795	-5.4009853203171385	1.1910258723119809
1.796	-5.389391362686562	1.1416578424940917
1.797	-5.377155994246527	1.0925181221284292
1.798	-5.364273538795197	1.0436184840784117
1.799	-5.357669803513352	1.0192301572402447
